{
    "week": 296,
    "satellites": [
        {
            "Name": "BEIDOU-2 G6 (C02)",
            "Line1": "1 38953U 12059A   24343.96604887 -.00000159  00000+0  00000+0 0  9993",
            "Line2": "2 38953   3.0056  79.0800 0007615 288.1994 142.7578  1.00270256 44485",
            "SatelliteNumber": "38953",
            "Classification": "U",
            "LaunchYear": "12",
            "LaunchNumber": "059",
            "PieceOfLaunch": "A",
            "EpochYear": "24",
            "EpochDay": 343.96604887,
            "FirstDerivativeMeanMotion": -1.59e-06,
            "SecondDerivativeMeanMotion": "00000+0",
            "BSTAR": "00000+0",
            "SetNumber": "999",
            "Inclination": 3.0056,
            "RAAN": 79.08,
            "Eccentricity": 0.0007615,
            "ArgumentOfPerigee": 288.1994,
            "MeanAnomaly": 142.7578,
            "MeanMotion": 1.00270256,
            "RevolutionNumber": "4448"
        },
        {
            "Name": "BEIDOU-3S IGSO-1S (C31)",
            "Line1": "1 40549U 15019A   24343.67710557 -.00000186  00000+0  00000+0 0  9996",
            "Line2": "2 40549  50.2501 302.1241 0034983 198.8429 276.9566  1.00265012 35509",
            "SatelliteNumber": "40549",
            "Classification": "U",
            "LaunchYear": "15",
            "LaunchNumber": "019",
            "PieceOfLaunch": "A",
            "EpochYear": "24",
            "EpochDay": 343.67710557,
            "FirstDerivativeMeanMotion": -1.86e-06,
            "SecondDerivativeMeanMotion": "00000+0",
            "BSTAR": "00000+0",
            "SetNumber": "999",
            "Inclination": 50.2501,
            "RAAN": 302.1241,
            "Eccentricity": 0.0034983,
            "ArgumentOfPerigee": 198.8429,
            "MeanAnomaly": 276.9566,
            "MeanMotion": 1.00265012,
            "RevolutionNumber": "3550"
        },
        {
            "Name": "BEIDOU-3S M2S (C58)",
            "Line1": "1 40748U 15037A   24341.96256510 -.00000047  00000+0  00000+0 0  9997",
            "Line2": "2 40748  55.3488 321.1521 0012895 262.3788  97.4779  1.86228970 63740",
            "SatelliteNumber": "40748",
            "Classification": "U",
            "LaunchYear": "15",
            "LaunchNumber": "037",
            "PieceOfLaunch": "A",
            "EpochYear": "24",
            "EpochDay": 341.9625651,
            "FirstDerivativeMeanMotion": -4.7e-07,
            "SecondDerivativeMeanMotion": "00000+0",
            "BSTAR": "00000+0",
            "SetNumber": "999",
            "Inclination": 55.3488,
            "RAAN": 321.1521,
            "Eccentricity": 0.0012895,
            "ArgumentOfPerigee": 262.3788,
            "MeanAnomaly": 97.4779,
            "MeanMotion": 1.8622897,
            "RevolutionNumber": "6374"
        },
        {
            "Name": "BEIDOU-3S M1S (C57)",
            "Line1": "1 40749U 15037B   24343.30985169 -.00000053  00000+0  00000+0 0  9994",
            "Line2": "2 40749  55.3504 321.0928 0004447 324.4255  35.5481  1.86227413 63769",
            "SatelliteNumber": "40749",
            "Classification": "U",
            "LaunchYear": "15",
            "LaunchNumber": "037",
            "PieceOfLaunch": "B",
            "EpochYear": "24",
            "EpochDay": 343.30985169,
            "FirstDerivativeMeanMotion": -5.3e-07,
            "SecondDerivativeMeanMotion": "00000+0",
            "BSTAR": "00000+0",
            "SetNumber": "999",
            "Inclination": 55.3504,
            "RAAN": 321.0928,
            "Eccentricity": 0.0004447,
            "ArgumentOfPerigee": 324.4255,
            "MeanAnomaly": 35.5481,
            "MeanMotion": 1.86227413,
            "RevolutionNumber": "6376"
        },
        {
            "Name": "BEIDOU-3S IGSO-2S (C56)",
            "Line1": "1 40938U 15053A   24343.75405894 -.00000153  00000+0  00000+0 0  9994",
            "Line2": "2 40938  50.0867 265.3640 0051757 188.8541 351.4306  1.00265641 33786",
            "SatelliteNumber": "40938",
            "Classification": "U",
            "LaunchYear": "15",
            "LaunchNumber": "053",
            "PieceOfLaunch": "A",
            "EpochYear": "24",
            "EpochDay": 343.75405894,
            "FirstDerivativeMeanMotion": -1.53e-06,
            "SecondDerivativeMeanMotion": "00000+0",
            "BSTAR": "00000+0",
            "SetNumber": "999",
            "Inclination": 50.0867,
            "RAAN": 265.364,
            "Eccentricity": 0.0051757,
            "ArgumentOfPerigee": 188.8541,
            "MeanAnomaly": 351.4306,
            "MeanMotion": 1.00265641,
            "RevolutionNumber": "3378"
        },
        {
            "Name": "BEIDOU-2 IGSO-6 (C13)",
            "Line1": "1 41434U 16021A   24343.90653128 -.00000174  00000+0  00000+0 0  9997",
            "Line2": "2 41434  59.4353  43.5937 0055180 225.9806 231.7342  1.00280420 31912",
            "SatelliteNumber": "41434",
            "Classification": "U",
            "LaunchYear": "16",
            "LaunchNumber": "021",
            "PieceOfLaunch": "A",
            "EpochYear": "24",
            "EpochDay": 343.90653128,
            "FirstDerivativeMeanMotion": -1.74e-06,
            "SecondDerivativeMeanMotion": "00000+0",
            "BSTAR": "00000+0",
            "SetNumber": "999",
            "Inclination": 59.4353,
            "RAAN": 43.5937,
            "Eccentricity": 0.005518,
            "ArgumentOfPerigee": 225.9806,
            "MeanAnomaly": 231.7342,
            "MeanMotion": 1.0028042,
            "RevolutionNumber": "3191"
        },
        {
            "Name": "BEIDOU-2 G7 (C03)",
            "Line1": "1 41586U 16037A   24343.89993277 -.00000338  00000+0  00000+0 0  9994",
            "Line2": "2 41586   1.7975  67.3645 0007361 342.1939 103.1348  1.00270352  1320",
            "SatelliteNumber": "41586",
            "Classification": "U",
            "LaunchYear": "16",
            "LaunchNumber": "037",
            "PieceOfLaunch": "A",
            "EpochYear": "24",
            "EpochDay": 343.89993277,
            "FirstDerivativeMeanMotion": -3.38e-06,
            "SecondDerivativeMeanMotion": "00000+0",
            "BSTAR": "00000+0",
            "SetNumber": "999",
            "Inclination": 1.7975,
            "RAAN": 67.3645,
            "Eccentricity": 0.0007361,
            "ArgumentOfPerigee": 342.1939,
            "MeanAnomaly": 103.1348,
            "MeanMotion": 1.00270352,
            "RevolutionNumber": "132"
        },
        {
            "Name": "BEIDOU-3 M1 (C19)",
            "Line1": "1 43001U 17069A   24343.38520339 -.00000011  00000+0  00000+0 0  9991",
            "Line2": "2 43001  56.2067  81.4680 0008797 296.5008  63.4153  1.86230965 48255",
            "SatelliteNumber": "43001",
            "Classification": "U",
            "LaunchYear": "17",
            "LaunchNumber": "069",
            "PieceOfLaunch": "A",
            "EpochYear": "24",
            "EpochDay": 343.38520339,
            "FirstDerivativeMeanMotion": -1.1e-07,
            "SecondDerivativeMeanMotion": "00000+0",
            "BSTAR": "00000+0",
            "SetNumber": "999",
            "Inclination": 56.2067,
            "RAAN": 81.468,
            "Eccentricity": 0.0008797,
            "ArgumentOfPerigee": 296.5008,
            "MeanAnomaly": 63.4153,
            "MeanMotion": 1.86230965,
            "RevolutionNumber": "4825"
        },
        {
            "Name": "BEIDOU-3 M2 (C20)",
            "Line1": "1 43002U 17069B   24343.32281647 -.00000011  00000+0  00000+0 0  9992",
            "Line2": "2 43002  56.2064  81.5059 0006133 324.3293  35.6361  1.86230811 48243",
            "SatelliteNumber": "43002",
            "Classification": "U",
            "LaunchYear": "17",
            "LaunchNumber": "069",
            "PieceOfLaunch": "B",
            "EpochYear": "24",
            "EpochDay": 343.32281647,
            "FirstDerivativeMeanMotion": -1.1e-07,
            "SecondDerivativeMeanMotion": "00000+0",
            "BSTAR": "00000+0",
            "SetNumber": "999",
            "Inclination": 56.2064,
            "RAAN": 81.5059,
            "Eccentricity": 0.0006133,
            "ArgumentOfPerigee": 324.3293,
            "MeanAnomaly": 35.6361,
            "MeanMotion": 1.86230811,
            "RevolutionNumber": "4824"
        },
        {
            "Name": "BEIDOU-3 M7 (C27)",
            "Line1": "1 43107U 18003A   24343.60726524 -.00000056  00000+0  00000+0 0  9995",
            "Line2": "2 43107  54.8060 321.6102 0002555  56.8483 303.1796  1.86232229 47001",
            "SatelliteNumber": "43107",
            "Classification": "U",
            "LaunchYear": "18",
            "LaunchNumber": "003",
            "PieceOfLaunch": "A",
            "EpochYear": "24",
            "EpochDay": 343.60726524,
            "FirstDerivativeMeanMotion": -5.6e-07,
            "SecondDerivativeMeanMotion": "00000+0",
            "BSTAR": "00000+0",
            "SetNumber": "999",
            "Inclination": 54.806,
            "RAAN": 321.6102,
            "Eccentricity": 0.0002555,
            "ArgumentOfPerigee": 56.8483,
            "MeanAnomaly": 303.1796,
            "MeanMotion": 1.86232229,
            "RevolutionNumber": "4700"
        }
    ]
}